{
    "links": {
        "self": "http://www.neowsapp.com/rest/v1/neo/3134274?api_key=iIulBulltgU6a56xZRHN4H3l9WmuAYTsLGpBGhQ2"
    },
    "id": "3134274",
    "neo_reference_id": "3134274",
    "name": "(2002 RC117)",
    "designation": "2002 RC117",
    "nasa_jpl_url": "http://ssd.jpl.nasa.gov/sbdb.cgi?sstr=3134274",
    "absolute_magnitude_h": 24.9,
    "estimated_diameter": {
        "kilometers": {
            "estimated_diameter_min": 0.0278326768,
            "estimated_diameter_max": 0.0622357573
        },
        "meters": {
            "estimated_diameter_min": 27.8326768072,
            "estimated_diameter_max": 62.2357573367
        },
        "miles": {
            "estimated_diameter_min": 0.0172944182,
            "estimated_diameter_max": 0.0386714948
        },
        "feet": {
            "estimated_diameter_min": 91.3145593761,
            "estimated_diameter_max": 204.1855621004
        }
    },
    "is_potentially_hazardous_asteroid": false,
    "close_approach_data": [
        {
            "close_approach_date": "2002-09-10",
            "close_approach_date_full": "2002-Sep-10 04:05",
            "epoch_date_close_approach": 1031630700000,
            "relative_velocity": {
                "kilometers_per_second": "12.2942460702",
                "kilometers_per_hour": "44259.2858526397",
                "miles_per_hour": "27500.9990343805"
            },
            "miss_distance": {
                "astronomical": "0.0206121266",
                "lunar": "8.0181172474",
                "kilometers": "3083530.235530342",
                "miles": "1916016.8414770396"
            },
            "orbiting_body": "Earth"
        }
    ],
    "orbital_data": {
        "orbit_id": "10",
        "orbit_determination_date": "2017-04-06 09:14:52",
        "first_observation_date": "2002-08-26",
        "last_observation_date": "2002-09-10",
        "data_arc_in_days": 15,
        "observations_used": 56,
        "orbit_uncertainty": "8",
        "minimum_orbit_intersection": ".00039081",
        "jupiter_tisserand_invariant": "3.213",
        "epoch_osculation": "2452522.5",
        "eccentricity": ".624637297479688",
        "semi_major_axis": "2.421976759882444",
        "inclination": "2.472258808750884",
        "ascending_node_longitude": "169.8326321881947",
        "orbital_period": "1376.744607816287",
        "perihelion_distance": ".9091197420308631",
        "perihelion_argument": "222.0255242785158",
        "aphelion_distance": "3.934833777734025",
        "perihelion_time": "2452560.131754915631",
        "mean_anomaly": "350.159807641364",
        "mean_motion": ".2614864063793292",
        "equinox": "J2000",
        "orbit_class": {
            "orbit_class_type": "APO",
            "orbit_class_description": "Near-Earth asteroid orbits which cross the Earth’s orbit similar to that of 1862 Apollo",
            "orbit_class_range": "a (semi-major axis) > 1.0 AU; q (perihelion) < 1.017 AU"
        }
    },
    "is_sentry_object": false
}